ORBCOMM FM24            
1 25478U 98053D   25339.24333417  .00001842  00000+0  64202-3 0  9991
2 25478  45.0057 177.7565 0002410  23.8297 336.2662 14.38621698422076
ORBCOMM FM25            
1 25479U 98053E   25339.28765674  .00001941  00000+0  67423-3 0  9998
2 25479  45.0052 175.8431 0004750  30.1618 329.9503 14.38592466422376
ORBCOMM FM26            
1 25480U 98053F   25339.27615246  .00001519  00000+0  54885-3 0  9997
2 25480  45.0048 173.6316 0006622  44.4836 315.6543 14.37569079422268
ORBCOMM FM27            
1 25481U 98053G   25339.27146316  .00001909  00000+0  66344-3 0  9991
2 25481  45.0035 176.0568 0001145  53.0536 307.0418 14.38624988422302
ORBCOMM FM28            
1 25482U 98053H   25338.45640212  .00002387  00000+0  81571-3 0  9995
2 25482  45.0039 117.2099 0004240  89.7164 270.4171 14.38755672422871
ORBCOMM FM30            
1 25980U 99065A   25339.31604474  .00001879  00000+0  66553-3 0  9996
2 25980  45.0325 359.4651 0005589 167.5466 192.5522 14.37737146359073
ORBCOMM FM31            
1 25981U 99065B   25339.29728515  .00001852  00000+0  65748-3 0  9993
2 25981  45.0239 353.0088 0004196 205.7399 154.3241 14.37664302358622
ORBCOMM FM32            
1 25982U 99065C   25338.48330860  .00002056  00000+0  73855-3 0  9991
2 25982  45.0167  14.5813 0006384 184.4011 175.6781 14.36718921359085
