<?xml version="1.0" encoding="UTF-8"?>
<ndm xmlns:xsi="http://www.w3.org/2001/XMLSchema-instance" xsi:noNamespaceSchemaLocation="https://sanaregistry.org/r/ndmxml_unqualified/ndmxml-2.0.0-master-2.0.xsd">
<omm id="CCSDS_OMM_VERS" version="2.0">
<header><CREATION_DATE/><ORIGINATOR/></header><body><segment><metadata><OBJECT_NAME>ORBCOMM FM24</OBJECT_NAME><OBJECT_ID>1998-053D</OBJECT_ID><CENTER_NAME>EARTH</CENTER_NAME><REF_FRAME>TEME</REF_FRAME><TIME_SYSTEM>UTC</TIME_SYSTEM><MEAN_ELEMENT_THEORY>SGP4</MEAN_ELEMENT_THEORY></metadata><data><meanElements><EPOCH>2025-12-05T05:50:24.072288</EPOCH><MEAN_MOTION>14.38621698</MEAN_MOTION><ECCENTRICITY>.00024109</ECCENTRICITY><INCLINATION>45.0057</INCLINATION><RA_OF_ASC_NODE>177.7565</RA_OF_ASC_NODE><ARG_OF_PERICENTER>23.8297</ARG_OF_PERICENTER><MEAN_ANOMALY>336.2662</MEAN_ANOMALY></meanElements><tleParameters><EPHEMERIS_TYPE>0</EPHEMERIS_TYPE><CLASSIFICATION_TYPE>U</CLASSIFICATION_TYPE><NORAD_CAT_ID>25478</NORAD_CAT_ID><ELEMENT_SET_NO>999</ELEMENT_SET_NO><REV_AT_EPOCH>42207</REV_AT_EPOCH><BSTAR>.64202121E-3</BSTAR><MEAN_MOTION_DOT>.1842E-4</MEAN_MOTION_DOT><MEAN_MOTION_DDOT>0</MEAN_MOTION_DDOT></tleParameters></data></segment></body></omm>
<omm id="CCSDS_OMM_VERS" version="2.0">
<header><CREATION_DATE/><ORIGINATOR/></header><body><segment><metadata><OBJECT_NAME>ORBCOMM FM25</OBJECT_NAME><OBJECT_ID>1998-053E</OBJECT_ID><CENTER_NAME>EARTH</CENTER_NAME><REF_FRAME>TEME</REF_FRAME><TIME_SYSTEM>UTC</TIME_SYSTEM><MEAN_ELEMENT_THEORY>SGP4</MEAN_ELEMENT_THEORY></metadata><data><meanElements><EPOCH>2025-12-05T06:54:13.542336</EPOCH><MEAN_MOTION>14.38592466</MEAN_MOTION><ECCENTRICITY>.00047509</ECCENTRICITY><INCLINATION>45.0052</INCLINATION><RA_OF_ASC_NODE>175.8431</RA_OF_ASC_NODE><ARG_OF_PERICENTER>30.1618</ARG_OF_PERICENTER><MEAN_ANOMALY>329.9503</MEAN_ANOMALY></meanElements><tleParameters><EPHEMERIS_TYPE>0</EPHEMERIS_TYPE><CLASSIFICATION_TYPE>U</CLASSIFICATION_TYPE><NORAD_CAT_ID>25479</NORAD_CAT_ID><ELEMENT_SET_NO>999</ELEMENT_SET_NO><REV_AT_EPOCH>42237</REV_AT_EPOCH><BSTAR>.67423327E-3</BSTAR><MEAN_MOTION_DOT>.1941E-4</MEAN_MOTION_DOT><MEAN_MOTION_DDOT>0</MEAN_MOTION_DDOT></tleParameters></data></segment></body></omm>
<omm id="CCSDS_OMM_VERS" version="2.0">
<header><CREATION_DATE/><ORIGINATOR/></header><body><segment><metadata><OBJECT_NAME>ORBCOMM FM26</OBJECT_NAME><OBJECT_ID>1998-053F</OBJECT_ID><CENTER_NAME>EARTH</CENTER_NAME><REF_FRAME>TEME</REF_FRAME><TIME_SYSTEM>UTC</TIME_SYSTEM><MEAN_ELEMENT_THEORY>SGP4</MEAN_ELEMENT_THEORY></metadata><data><meanElements><EPOCH>2025-12-05T06:37:39.572544</EPOCH><MEAN_MOTION>14.37569079</MEAN_MOTION><ECCENTRICITY>.00066225</ECCENTRICITY><INCLINATION>45.0048</INCLINATION><RA_OF_ASC_NODE>173.6316</RA_OF_ASC_NODE><ARG_OF_PERICENTER>44.4836</ARG_OF_PERICENTER><MEAN_ANOMALY>315.6543</MEAN_ANOMALY></meanElements><tleParameters><EPHEMERIS_TYPE>0</EPHEMERIS_TYPE><CLASSIFICATION_TYPE>U</CLASSIFICATION_TYPE><NORAD_CAT_ID>25480</NORAD_CAT_ID><ELEMENT_SET_NO>999</ELEMENT_SET_NO><REV_AT_EPOCH>42226</REV_AT_EPOCH><BSTAR>.5488519E-3</BSTAR><MEAN_MOTION_DOT>.1519E-4</MEAN_MOTION_DOT><MEAN_MOTION_DDOT>0</MEAN_MOTION_DDOT></tleParameters></data></segment></body></omm>
<omm id="CCSDS_OMM_VERS" version="2.0">
<header><CREATION_DATE/><ORIGINATOR/></header><body><segment><metadata><OBJECT_NAME>ORBCOMM FM27</OBJECT_NAME><OBJECT_ID>1998-053G</OBJECT_ID><CENTER_NAME>EARTH</CENTER_NAME><REF_FRAME>TEME</REF_FRAME><TIME_SYSTEM>UTC</TIME_SYSTEM><MEAN_ELEMENT_THEORY>SGP4</MEAN_ELEMENT_THEORY></metadata><data><meanElements><EPOCH>2025-12-05T06:30:54.417024</EPOCH><MEAN_MOTION>14.38624988</MEAN_MOTION><ECCENTRICITY>.00011453</ECCENTRICITY><INCLINATION>45.0035</INCLINATION><RA_OF_ASC_NODE>176.0568</RA_OF_ASC_NODE><ARG_OF_PERICENTER>53.0536</ARG_OF_PERICENTER><MEAN_ANOMALY>307.0418</MEAN_ANOMALY></meanElements><tleParameters><EPHEMERIS_TYPE>0</EPHEMERIS_TYPE><CLASSIFICATION_TYPE>U</CLASSIFICATION_TYPE><NORAD_CAT_ID>25481</NORAD_CAT_ID><ELEMENT_SET_NO>999</ELEMENT_SET_NO><REV_AT_EPOCH>42230</REV_AT_EPOCH><BSTAR>.66344455E-3</BSTAR><MEAN_MOTION_DOT>.1909E-4</MEAN_MOTION_DOT><MEAN_MOTION_DDOT>0</MEAN_MOTION_DDOT></tleParameters></data></segment></body></omm>
<omm id="CCSDS_OMM_VERS" version="2.0">
<header><CREATION_DATE/><ORIGINATOR/></header><body><segment><metadata><OBJECT_NAME>ORBCOMM FM28</OBJECT_NAME><OBJECT_ID>1998-053H</OBJECT_ID><CENTER_NAME>EARTH</CENTER_NAME><REF_FRAME>TEME</REF_FRAME><TIME_SYSTEM>UTC</TIME_SYSTEM><MEAN_ELEMENT_THEORY>SGP4</MEAN_ELEMENT_THEORY></metadata><data><meanElements><EPOCH>2025-12-04T10:57:13.143168</EPOCH><MEAN_MOTION>14.38755672</MEAN_MOTION><ECCENTRICITY>.000424</ECCENTRICITY><INCLINATION>45.0039</INCLINATION><RA_OF_ASC_NODE>117.2099</RA_OF_ASC_NODE><ARG_OF_PERICENTER>89.7164</ARG_OF_PERICENTER><MEAN_ANOMALY>270.4171</MEAN_ANOMALY></meanElements><tleParameters><EPHEMERIS_TYPE>0</EPHEMERIS_TYPE><CLASSIFICATION_TYPE>U</CLASSIFICATION_TYPE><NORAD_CAT_ID>25482</NORAD_CAT_ID><ELEMENT_SET_NO>999</ELEMENT_SET_NO><REV_AT_EPOCH>42287</REV_AT_EPOCH><BSTAR>.81571E-3</BSTAR><MEAN_MOTION_DOT>.2387E-4</MEAN_MOTION_DOT><MEAN_MOTION_DDOT>0</MEAN_MOTION_DDOT></tleParameters></data></segment></body></omm>
<omm id="CCSDS_OMM_VERS" version="2.0">
<header><CREATION_DATE/><ORIGINATOR/></header><body><segment><metadata><OBJECT_NAME>ORBCOMM FM30</OBJECT_NAME><OBJECT_ID>1999-065A</OBJECT_ID><CENTER_NAME>EARTH</CENTER_NAME><REF_FRAME>TEME</REF_FRAME><TIME_SYSTEM>UTC</TIME_SYSTEM><MEAN_ELEMENT_THEORY>SGP4</MEAN_ELEMENT_THEORY></metadata><data><meanElements><EPOCH>2025-12-05T07:35:06.265536</EPOCH><MEAN_MOTION>14.37737146</MEAN_MOTION><ECCENTRICITY>.00055891</ECCENTRICITY><INCLINATION>45.0325</INCLINATION><RA_OF_ASC_NODE>359.4651</RA_OF_ASC_NODE><ARG_OF_PERICENTER>167.5466</ARG_OF_PERICENTER><MEAN_ANOMALY>192.5522</MEAN_ANOMALY></meanElements><tleParameters><EPHEMERIS_TYPE>0</EPHEMERIS_TYPE><CLASSIFICATION_TYPE>U</CLASSIFICATION_TYPE><NORAD_CAT_ID>25980</NORAD_CAT_ID><ELEMENT_SET_NO>999</ELEMENT_SET_NO><REV_AT_EPOCH>35907</REV_AT_EPOCH><BSTAR>.66552777E-3</BSTAR><MEAN_MOTION_DOT>.1879E-4</MEAN_MOTION_DOT><MEAN_MOTION_DDOT>0</MEAN_MOTION_DDOT></tleParameters></data></segment></body></omm>
<omm id="CCSDS_OMM_VERS" version="2.0">
<header><CREATION_DATE/><ORIGINATOR/></header><body><segment><metadata><OBJECT_NAME>ORBCOMM FM31</OBJECT_NAME><OBJECT_ID>1999-065B</OBJECT_ID><CENTER_NAME>EARTH</CENTER_NAME><REF_FRAME>TEME</REF_FRAME><TIME_SYSTEM>UTC</TIME_SYSTEM><MEAN_ELEMENT_THEORY>SGP4</MEAN_ELEMENT_THEORY></metadata><data><meanElements><EPOCH>2025-12-05T07:08:05.436960</EPOCH><MEAN_MOTION>14.37664302</MEAN_MOTION><ECCENTRICITY>.00041966</ECCENTRICITY><INCLINATION>45.0239</INCLINATION><RA_OF_ASC_NODE>353.0088</RA_OF_ASC_NODE><ARG_OF_PERICENTER>205.7399</ARG_OF_PERICENTER><MEAN_ANOMALY>154.3241</MEAN_ANOMALY></meanElements><tleParameters><EPHEMERIS_TYPE>0</EPHEMERIS_TYPE><CLASSIFICATION_TYPE>U</CLASSIFICATION_TYPE><NORAD_CAT_ID>25981</NORAD_CAT_ID><ELEMENT_SET_NO>999</ELEMENT_SET_NO><REV_AT_EPOCH>35862</REV_AT_EPOCH><BSTAR>.65748414E-3</BSTAR><MEAN_MOTION_DOT>.1852E-4</MEAN_MOTION_DOT><MEAN_MOTION_DDOT>0</MEAN_MOTION_DDOT></tleParameters></data></segment></body></omm>
<omm id="CCSDS_OMM_VERS" version="2.0">
<header><CREATION_DATE/><ORIGINATOR/></header><body><segment><metadata><OBJECT_NAME>ORBCOMM FM32</OBJECT_NAME><OBJECT_ID>1999-065C</OBJECT_ID><CENTER_NAME>EARTH</CENTER_NAME><REF_FRAME>TEME</REF_FRAME><TIME_SYSTEM>UTC</TIME_SYSTEM><MEAN_ELEMENT_THEORY>SGP4</MEAN_ELEMENT_THEORY></metadata><data><meanElements><EPOCH>2025-12-04T11:35:57.863040</EPOCH><MEAN_MOTION>14.36718921</MEAN_MOTION><ECCENTRICITY>.0006384</ECCENTRICITY><INCLINATION>45.0167</INCLINATION><RA_OF_ASC_NODE>14.5813</RA_OF_ASC_NODE><ARG_OF_PERICENTER>184.4011</ARG_OF_PERICENTER><MEAN_ANOMALY>175.6781</MEAN_ANOMALY></meanElements><tleParameters><EPHEMERIS_TYPE>0</EPHEMERIS_TYPE><CLASSIFICATION_TYPE>U</CLASSIFICATION_TYPE><NORAD_CAT_ID>25982</NORAD_CAT_ID><ELEMENT_SET_NO>999</ELEMENT_SET_NO><REV_AT_EPOCH>35908</REV_AT_EPOCH><BSTAR>.73855E-3</BSTAR><MEAN_MOTION_DOT>.2056E-4</MEAN_MOTION_DOT><MEAN_MOTION_DDOT>0</MEAN_MOTION_DDOT></tleParameters></data></segment></body></omm>

</ndm>
